BEIDOU-3 M1 (C19)
1 43001U 17069A   26266.39585775  .00000004  00000+0  00000+0 0  9994
2 43001  56.7818  59.8559 0007104 319.8169  40.1501  1.86231398 60430
BEIDOU-3 M2 (C20)
1 43002U 17069B   26266.87180128  .00000004  00000+0  00000+0 0  9991
2 43002  56.7819  59.8754 0005831   2.1989 357.8218  1.86230933 60433
BEIDOU-3 M7 (C27)
1 43107U 18003A   26266.61426188 -.00000012  00000+0  00000+0 0  9997
2 43107  54.2374 298.8740 0002927 102.9812 257.1188  1.86228224 59183
BEIDOU-3 M8 (C28)
1 43108U 18003B   26264.40968714 -.00000018  00000+0  00000+0 0  9995
2 43108  54.2315 298.9322 0004338 263.9509  96.0645  1.86231322 59153
BEIDOU-3 M4 (C22)
1 43207U 18018A   26265.92721281  .00000004  00000+0  00000+0 0  9999
2 43207  56.7402  59.9318 0005571  45.0663 314.9998  1.86231323 58565
BEIDOU-3 M3 (C21)
1 43208U 18018B   26265.99371587  .00000004  00000+0  00000+0 0  9997
2 43208  56.7405  59.9338 0005147 343.5222  16.4817  1.86231196 58569
BEIDOU-3 M9 (C29)
1 43245U 18029A   26266.74920885 -.00000009  00000+0  00000+0 0  9991
2 43245  54.1026 296.4926 0001843 241.4010 118.6451  1.86228603 57738
BEIDOU-3 M10 (C30)
1 43246U 18029B   26266.68306536 -.00000009  00000+0  00000+0 0  9996
2 43246  54.0996 296.5213 0002835  11.3723 348.6989  1.86229538 57718
BEIDOU-3 M5 (C23)
1 43581U 18062A   26264.22221282 -.00000027  00000+0  00000+0 0  9997
2 43581  54.0823 179.0409 0003830 315.4846  44.5046  1.86228923 55420
BEIDOU-3 M6 (C24)
1 43582U 18062B   26264.08607595 -.00000027  00000+0  00000+0 0  9997
2 43582  54.0817 179.0348 0006671  32.7230 327.3382  1.86228190 55429
BEIDOU-3 M12 (C26)
1 43602U 18067A   26265.63553725 -.00000016  00000+0  00000+0 0  9990
2 43602  54.1778 177.7373 0008968  37.7035 322.3837  1.86227744 54930
BEIDOU-3 M11 (C25)
1 43603U 18067B   26265.23389472 -.00000020  00000+0  00000+0 0  9998
2 43603  54.1752 177.7144 0005374  26.6148 333.4364  1.86227256 54957
BEIDOU-3 M13 (C32)
1 43622U 18072A   26265.18778182  .00000002  00000+0  00000+0 0  9998
2 43622  56.7137  59.4640 0004012 325.2471  34.7480  1.86231264 54465
BEIDOU-3 M14 (C33)
1 43623U 18072B   26266.12710635  .00000003  00000+0  00000+0 0  9994
2 43623  56.7165  59.4274 0003452  25.0017 335.0348  1.86231270 54476
BEIDOU-3 M16 (C35)
1 43647U 18078A   26264.13329856 -.00000015  00000+0  00000+0 0  9990
2 43647  54.0007 296.6129 0006093  30.7925 329.3056  1.86232488 53942
BEIDOU-3 M15 (C34)
1 43648U 18078B   26265.33802624 -.00000011  00000+0  00000+0 0  9999
2 43648  53.9953 296.5705 0002669  34.2124 325.8691  1.86227593 53986
BEIDOU-3 G1 (C59)
1 43683U 18085A   26267.15813620 -.00000107  00000+0  00000+0 0  9992
2 43683   2.6375  94.5789 0005915  22.6138 102.8267  1.00272148 29050
BEIDOU-3 M17 (C36)
1 43706U 18093A   26266.22877885 -.00000011  00000+0  00000+0 0  9991
2 43706  54.1653 178.9726 0008146 304.6335 184.1729  1.86228431 53363
BEIDOU-3 M18 (C37)
1 43707U 18093B   26265.90091979 -.00000014  00000+0  00000+0 0  9991
2 43707  54.1661 178.9759 0007282 340.8886  19.1067  1.86226745 53359
BEIDOU-3 IGSO-1 (C38)
1 44204U 19023A   26266.91665425 -.00000197  00000+0  00000+0 0  9995
2 44204  58.8363  36.6422 0027964 223.3697 191.1214  1.00263204  8209
BEIDOU-3 IGSO-2 (C39)
1 44337U 19035A   26265.42711716 -.00000151  00000+0  00000+0 0  9995
2 44337  55.2502 158.0086 0038712 210.6023 266.1690  1.00270543 26645
BEIDOU-3 M24 (C46)
1 44542U 19061A   26266.50572373 -.00000008  00000+0  00000+0 0  9997
2 44542  54.4306 179.4090 0020747  95.6918 264.5686  1.86175926 47622
BEIDOU-3 M23 (C45)
1 44543U 19061B   26265.23739916 -.00000020  00000+0  00000+0 0  9999
2 44543  54.3915 179.4254 0006052   6.1022 134.9450  1.86227663 47609
BEIDOU-3 IGSO-3 (C40)
1 44709U 19073A   26266.44132315 -.00000140  00000+0  00000+0 0  9993
2 44709  54.6364 279.8257 0046696 198.3041 161.5758  1.00260255 25440
BEIDOU-3 M22 (C44)
1 44793U 19078A   26265.80933403 -.00000010  00000+0  00000+0 0  9993
2 44793  53.8445 296.3842 0004865  39.3537 320.7460  1.86227543 46465
BEIDOU-3 M21 (C43)
1 44794U 19078B   26264.33812216 -.00000014  00000+0  00000+0 0  9993
2 44794  53.8190 296.3951 0002837  28.5345 331.5435  1.86228024 46443
BEIDOU-3 M19 (C41)
1 44864U 19090A   26264.54852389  .00000000  00000+0  00000+0 0  9997
2 44864  56.6478  59.6111 0015681 291.7689  47.4100  1.86231676 46028
BEIDOU-3 M20 (C42)
1 44865U 19090B   26267.12918941  .00000003  00000+0  00000+0 0  9995
2 44865  56.6514  59.5612 0012991 306.4983  52.4525  1.86231628 46054
BEIDOU-3 G2 (C60)
1 45344U 20017A   26267.07094917 -.00000139  00000+0  00000+0 0  9992
2 45344   2.6044  48.5592 0002287 133.4476 286.5292  1.00272010 24258
BEIDOU-3 G3 (C61)
1 45807U 20040A   26266.89110773 -.00000353  00000+0  00000+0 0  9998
2 45807   2.6838  67.3821 0002975 291.1953  75.5331  1.00274833 23066
BEIDOU-3 G4 (C62)
1 56564U 23066A   26267.22538981 -.00000282  00000+0  00000+0 0  9995
2 56564   0.4419   0.2368 0005506 198.8489  25.0743  1.00266862 12384
BEIDOU-3 M28 (C50)
1 58654U 23207A   26266.56254193  .00000000  00000+0  00000+0 0  9997
2 58654  55.8449  58.9904 0000356  48.7164 311.3053  1.86229691 18676
BEIDOU-3 M26 (C48)
1 58655U 23207B   26266.89701707 -.00000001  00000+0  00000+0 0  9994
2 58655  55.8475  58.9659 0001269 243.1652 116.8395  1.86229594 18668
BEIDOU-3 M25 (C47)
1 61186U 24168B   26266.76429677 -.00000011  00000+0  00000+0 0  9994
2 61186  54.3830 298.8081 0004760 289.4881  99.3134  1.86230282 13623
BEIDOU-3 M27 (C49)
1 61187U 24168C   26265.45505181 -.00000014  00000+0  00000+0 0  9998
2 61187  54.3794 298.8362 0001155 320.3817  45.6947  1.86230446 11079
