BEIDOU-3 M1 (C19)
1 43001U 17069A   26278.74582242 -.00000012  00000+0  00000+0 0  9992
2 43001  56.7938  59.4504 0007253 317.9935  41.9518  1.86230783 60663
BEIDOU-3 M2 (C20)
1 43002U 17069B   26277.61092366 -.00000006  00000+0  00000+0 0  9994
2 43002  56.7916  59.5237 0005697 359.2843   0.7183  1.86230520 60638
BEIDOU-3 M7 (C27)
1 43107U 18003A   26278.96430557 -.00000026  00000+0  00000+0 0  9998
2 43107  54.2266 298.4413 0002876 102.9706 257.1043  1.86227889 59413
BEIDOU-3 M8 (C28)
1 43108U 18003B   26277.83344390 -.00000020  00000+0  00000+0 0  9997
2 43108  54.2205 298.4621 0004517 265.3256  94.6659  1.86230838 59400
BEIDOU-3 M4 (C22)
1 43207U 18018A   26278.27717924 -.00000009  00000+0  00000+0 0  9996
2 43207  56.7523  59.5261 0005372  43.7095 316.3353  1.86230688 58794
BEIDOU-3 M3 (C21)
1 43208U 18018B   26277.80672106 -.00000006  00000+0  00000+0 0  9994
2 43208  56.7514  59.5455 0005182 341.0617  18.9223  1.86230782 58788
BEIDOU-3 M9 (C29)
1 43245U 18029A   26279.09924098 -.00000025  00000+0  00000+0 0  9991
2 43245  54.0918 296.0578 0001794 242.3866 117.6345  1.86227966 57967
BEIDOU-3 M10 (C30)
1 43246U 18029B   26279.03303583 -.00000024  00000+0  00000+0 0  9995
2 43246  54.0892 296.0870 0002920  11.9586 348.0879  1.86228999 57942
BEIDOU-3 M5 (C23)
1 43581U 18062A   26278.18311806 -.00000026  00000+0  00000+0 0  9998
2 43581  54.0804 178.5664 0003436 323.1267  36.8955  1.86228677 55688
BEIDOU-3 M6 (C24)
1 43582U 18062B   26278.58398858 -.00000026  00000+0  00000+0 0  9995
2 43582  54.0800 178.5418 0007047  37.0220 323.0724  1.86227925 55695
BEIDOU-3 M12 (C26)
1 43602U 18067A   26278.52260611 -.00000025  00000+0  00000+0 0  9991
2 43602  54.1763 177.3006 0009150  39.6321 320.4828  1.86227440 55175
BEIDOU-3 M11 (C25)
1 43603U 18067B   26278.65795867 -.00000024  00000+0  00000+0 0  9991
2 43603  54.1737 177.2594 0005505  30.4807 329.5995  1.86226990 55204
BEIDOU-3 M13 (C32)
1 43622U 18072A   26278.07470405 -.00000009  00000+0  00000+0 0  9995
2 43622  56.7255  59.0411 0004086 320.4429  39.5297  1.86230638 54709
BEIDOU-3 M14 (C33)
1 43623U 18072B   26278.47707374 -.00000012  00000+0  00000+0 0  9992
2 43623  56.7278  59.0223 0003200  21.7868 338.2284  1.86230716 54703
BEIDOU-3 M16 (C35)
1 43647U 18078A   26279.16778347 -.00000026  00000+0  00000+0 0  9994
2 43647  53.9875 296.0831 0006228  29.1726 330.9015  1.86232251 54221
BEIDOU-3 M15 (C34)
1 43648U 18078B   26278.22506153 -.00000019  00000+0  00000+0 0  9997
2 43648  53.9841 296.1163 0002788  30.6342 329.4222  1.86227314 54229
BEIDOU-3 G1 (C59)
1 43683U 18085A   26279.13261390 -.00000124  00000+0  00000+0 0  9993
2 43683   2.6690  94.2250 0005037  28.8824  99.4987  1.00270608 29177
BEIDOU-3 M17 (C36)
1 43706U 18093A   26279.08825712 -.00000024  00000+0  00000+0 0  9995
2 43706  54.1640 178.5360 0007790 307.2052 163.1683  1.86228190 53603
BEIDOU-3 M18 (C37)
1 43707U 18093B   26276.64020780 -.00000015  00000+0  00000+0 0  9997
2 43707  54.1647 178.6114 0007201 344.1405  15.8867  1.86226508 53550
BEIDOU-3 IGSO-1 (C38)
1 44204U 19023A   26278.67349380 -.00000217  00000+0  00000+0 0  9993
2 44204  58.8520  36.5213 0028416 224.6549 113.3564  1.00259131  8314
BEIDOU-3 IGSO-2 (C39)
1 44337U 19035A   26278.59955218 -.00000147  00000+0  00000+0 0  9999
2 44337  55.2499 157.8917 0038593 210.4040 341.2792  1.00266198 26777
BEIDOU-3 M24 (C46)
1 44542U 19061A   26266.50572373 -.00000008  00000+0  00000+0 0  9997
2 44542  54.4306 179.4090 0020747  95.6918 264.5686  1.86175926 47622
BEIDOU-3 M23 (C45)
1 44543U 19061B   26278.71352218 -.00000026  00000+0  00000+0 0  9998
2 44543  54.3901 178.9707 0006164  10.6524 165.3449  1.86227490 47853
BEIDOU-3 IGSO-3 (C40)
1 44709U 19073A   26278.41006163 -.00000164  00000+0  00000+0 0  9990
2 44709  54.6173 279.6953 0046499 198.5824 161.2482  1.00256436 25561
BEIDOU-3 M22 (C44)
1 44793U 19078A   26278.15942139 -.00000019  00000+0  00000+0 0  9990
2 44793  53.8339 295.9475 0004929  37.9001 322.1744  1.86227013 46693
BEIDOU-3 M21 (C43)
1 44794U 19078B   26277.22513370 -.00000015  00000+0  00000+0 0  9995
2 44794  53.8080 295.9395 0002871  26.4145 333.6397  1.86227524 46681
BEIDOU-3 M19 (C41)
1 44864U 19090A   26278.80351911 -.00000014  00000+0  00000+0 0  9992
2 44864  56.6609  59.1420 0016037 291.1760 245.2198  1.86230966 46297
BEIDOU-3 M20 (C42)
1 44865U 19090B   26278.94024825 -.00000015  00000+0  00000+0 0  9990
2 44865  56.6625  59.1722 0013208 305.8743  51.7620  1.86231104 46275
BEIDOU-3 G2 (C60)
1 45344U 20017A   26279.11675383 -.00000155  00000+0  00000+0 0  9990
2 45344   2.6306  48.7396 0002685 159.8527 288.2996  1.00271886 24377
BEIDOU-3 G3 (C61)
1 45807U 20040A   26279.05149353 -.00000368  00000+0  00000+0 0  9992
2 45807   2.7150  67.3525 0003158 272.8260 163.6064  1.00267100 23180
BEIDOU-3 G4 (C62)
1 56564U 23066A   26279.19986752 -.00000298  00000+0  00000+0 0  9994
2 56564   0.4464   4.2874 0005772 209.3991  13.2164  1.00272039 12504
BEIDOU-3 M28 (C50)
1 58654U 23207A   26277.83863865 -.00000011  00000+0  00000+0 0  9994
2 58654  55.8554  58.6115 0000067 331.7587  28.2441  1.86229475 18885
BEIDOU-3 M26 (C48)
1 58655U 23207B   26277.63616494 -.00000010  00000+0  00000+0 0  9996
2 58655  55.8572  58.6050 0001583 243.7560 116.2312  1.86229368 18865
BEIDOU-3 M25 (C47)
1 61186U 24168B   26279.05410920 -.00000026  00000+0  00000+0 0  9997
2 61186  54.3722 298.3779 0004802 291.1378  57.3376  1.86229878 13845
BEIDOU-3 M27 (C49)
1 61187U 24168C   26278.60791868 -.00000023  00000+0  00000+0 0  9998
2 61187  54.3680 298.3759 0001269 323.8821 220.5084  1.86229978 11318
